{
  "norad_id": 62910,
  "name": "STARLINK-11569 [DTC]",
  "history": [
    {
      "epoch": "2026-03-28T18:23:27.519072Z",
      "apogee_km": 357.3671965925905,
      "perigee_km": 355.4229371848787,
      "latitude_deg": 1.1136249128038779e-05,
      "longitude_deg": 130.5180225925407,
      "height_km": 356.3398542478311,
      "semi_major_axis_km": 6734.532066888734,
      "eccentricity": 0.00014435,
      "inclination_deg": 42.9995,
      "raan_deg": 232.5647,
      "arg_perigee_deg": 259.7844,
      "mean_anomaly_deg": 100.2861,
      "mean_motion_rev_day": 15.70874986
    }
  ]
}